NORAD_CAT_ID,OBJECT_NAME,OBJECT_TYPE,EPOCH,MEAN_MOTION,ECCENTRICITY,INCLINATION,RA_OF_ASC_NODE,ARG_OF_PERICENTER,MEAN_ANOMALY,BSTAR,MEAN_MOTION_DOT,MEAN_MOTION_DDOT,TLE_LINE0,TLE_LINE1,TLE_LINE2,SEMIMAJOR_AXIS,PERIOD,APOGEE,PERIGEE,DECAYED
55431.0,STARLINK-5643,PAYLOAD,2023-02-17 18:14:47,15.69939961,0.0003546,69.9986,41.7126,276.0715,84.0077,0.00025314,0.00030356,0.0,0 STARLINK-5643,1 55431U 23014AS  23048.76027533  .00030356  00000-0  25314-3 0  9993,2 55431  69.9986  41.7126 0003546 276.0715  84.0077 15.69939961  2886,6737.206,91.723,361.46,356.682,0.0
55431.0,STARLINK-5643,PAYLOAD,2023-02-17 21:18:18,15.69918135,0.000361,69.9987,41.3546,276.0492,84.0292,5.7425e-05,6.696e-05,0.0,0 STARLINK-5643,1 55431U 23014AS  23048.88771053  .00006696  00000-0  57425-4 0  9998,2 55431  69.9987  41.3546 0003610 276.0492  84.0292 15.69918135  3849,6737.268,91.725,361.565,356.701,0.0
55431.0,STARLINK-5643,PAYLOAD,2023-02-18 01:53:33,15.69937434,0.0003482,69.9988,40.8163,274.1887,85.8911,0.0002539,0.00030445,0.0,0 STARLINK-5643,1 55431U 23014AS  23049.07886053  .00030445  00000-0  25390-3 0  9991,2 55431  69.9988  40.8163 0003482 274.1887  85.8911 15.69937434  2932,6737.213,91.723,361.424,356.732,0.0
55431.0,STARLINK-5643,PAYLOAD,2023-02-18 12:35:48,15.69972889,0.000343,69.9986,39.5622,268.1357,91.9446,0.00058134,0.0007042,0.0,0 STARLINK-5643,1 55431U 23014AS  23049.52487040  .00070420  00000-0  58134-3 0  9993,2 55431  69.9986  39.5622 0003430 268.1357  91.9446 15.69972889  3949,6737.112,91.721,361.287,356.666,0.0
55431.0,STARLINK-5643,PAYLOAD,2023-02-18 18:42:49,15.69931053,0.0003407,69.9987,38.8453,259.738,100.3432,0.00049822,0.00060142,0.0,0 STARLINK-5643,1 55431U 23014AS  23049.77974030  .00060142  00000-0  49822-3 0  9994,2 55431  69.9987  38.8453 0003407 259.7380 100.3432 15.69931053  3049,6737.231,91.724,361.392,356.801,0.0
55431.0,STARLINK-5643,PAYLOAD,2023-02-19 02:21:35,15.69940291,0.0003479,69.9987,37.9497,260.7528,99.3274,0.00050946,0.00061539,0.0,0 STARLINK-5643,1 55431U 23014AS  23050.09832392  .00061539  00000-0  50946-3 0  9995,2 55431  69.9987  37.9497 0003479 260.7528  99.3274 15.69940291  3092,6737.205,91.723,361.414,356.726,0.0
55431.0,STARLINK-5643,PAYLOAD,2023-02-19 11:32:05,15.69938323,0.0003439,69.9989,36.8744,262.1749,97.9056,0.00034348,0.00041316,0.0,0 STARLINK-5643,1 55431U 23014AS  23050.48062304  .00041316  00000-0  34348-3 0  9995,2 55431  69.9989  36.8744 0003439 262.1749  97.9056 15.69938323  3156,6737.21,91.723,361.392,356.759,0.0
55431.0,STARLINK-5643,PAYLOAD,2023-02-19 14:35:36,15.69919519,0.0003522,69.9989,36.516,265.4409,94.6384,0.00033137,0.00039814,0.0,0 STARLINK-5643,1 55431U 23014AS  23050.60805802  .00039814  00000-0  33137-3 0  9992,2 55431  69.9989  36.5160 0003522 265.4409  94.6384 15.69919519  4118,6737.264,91.724,361.502,356.756,0.0
55431.0,STARLINK-5643,PAYLOAD,2023-02-19 19:10:51,15.69928815,0.0003528,69.9989,35.9786,266.4903,93.589,0.000521,0.00062918,0.0,0 STARLINK-5643,1 55431U 23014AS  23050.79920833  .00062918  00000-0  52100-3 0  9996,2 55431  69.9989  35.9786 0003528 266.4903  93.5890 15.69928815  3209,6737.238,91.724,361.48,356.726,0.0
55431.0,STARLINK-5643,PAYLOAD,2023-02-20 02:49:37,15.69938291,0.000353,69.9988,35.0827,265.8097,94.2695,0.0003316,0.00039874,0.0,0 STARLINK-5643,1 55431U 23014AS  23051.11779121  .00039874  00000-0  33160-3 0  9995,2 55431  69.9988  35.0827 0003530 265.8097  94.2695 15.69938291  3250,6737.211,91.723,361.454,356.697,0.0
55431.0,STARLINK-5643,PAYLOAD,2023-02-20 10:28:22,15.69932925,0.0003512,69.9989,34.1868,267.5458,92.5336,0.0003752,0.00045163,0.0,0 STARLINK-5643,1 55431U 23014AS  23051.43637513  .00045163  00000-0  37520-3 0  9990,2 55431  69.9989  34.1868 0003512 267.5458  92.5336 15.69932925  3303,6737.226,91.724,361.457,356.725,0.0
55431.0,STARLINK-5643,PAYLOAD,2023-02-20 13:31:53,15.69933748,0.0003515,69.999,33.8284,269.337,90.7423,0.00045044,0.00054323,0.0,0 STARLINK-5643,1 55431U 23014AS  23051.56380822  .00054323  00000-0  45044-3 0  9990,2 55431  69.9990  33.8284 0003515 269.3370  90.7423 15.69933748  4266,6737.224,91.724,361.457,356.72,0.0
55431.0,STARLINK-5643,PAYLOAD,2023-02-20 18:07:08,15.69929554,0.0003487,69.999,33.2907,271.8822,88.1975,0.00038747,0.00046648,0.0,0 STARLINK-5643,1 55431U 23014AS  23051.75495849  .00046648  00000-0  38747-3 0  9990,2 55431  69.9990  33.2907 0003487 271.8822  88.1975 15.69929554  3352,6737.236,91.724,361.45,356.751,0.0
55431.0,STARLINK-5643,PAYLOAD,2023-02-21 01:45:53,15.69943715,0.0003485,69.9991,32.3949,269.3603,90.7194,0.00038114,0.00045906,0.0,0 STARLINK-5643,1 55431U 23014AS  23052.07354104  .00045906  00000-0  38114-3 0  9998,2 55431  69.9991  32.3949 0003485 269.3603  90.7194 15.69943715  3409,6737.195,91.723,361.408,356.712,0.0
55431.0,STARLINK-5643,PAYLOAD,2023-02-21 09:24:39,15.69938919,0.0003429,69.9994,31.4994,269.7932,90.2871,0.0003583,0.00043118,0.0,0 STARLINK-5643,1 55431U 23014AS  23052.39212375  .00043118  00000-0  35830-3 0  9991,2 55431  69.9994  31.4994 0003429 269.7932  90.2871 15.69938919  3451,6737.209,91.723,361.384,356.764,0.0
55431.0,STARLINK-5643,PAYLOAD,2023-02-21 13:59:55,15.69919147,0.0003671,69.9994,30.9617,269.0632,91.0143,0.00040417,0.0004866,0.0,0 STARLINK-5643,1 55431U 23014AS  23052.58327554  .00048660  00000-0  40417-3 0  9992,2 55431  69.9994  30.9617 0003671 269.0632  91.0143 15.69919147  4427,6737.265,91.724,361.604,356.657,0.0
55431.0,STARLINK-5643,PAYLOAD,2023-02-21 18:35:10,15.69925963,0.0003646,69.9995,30.4243,271.7064,88.3714,0.00054968,0.00066415,0.0,0 STARLINK-5643,1 55431U 23014AS  23052.77442612  .00066415  00000-0  54968-3 0  9990,2 55431  69.9995  30.4243 0003646 271.7064  88.3714 15.69925963  3514,6737.246,91.724,361.567,356.654,0.0
55431.0,STARLINK-5643,PAYLOAD,2023-02-21 21:38:40,15.69936771,0.0003668,69.9994,30.066,271.3145,88.763,0.00057486,0.00069524,0.0,0 STARLINK-5643,1 55431U 23014AS  23052.90185919  .00069524  00000-0  57486-3 0  9991,2 55431  69.9994  30.0660 0003668 271.3145  88.7630 15.69936771  4478,6737.215,91.723,361.551,356.609,0.0
55431.0,STARLINK-5643,PAYLOAD,2023-02-22 09:52:41,15.69913662,0.0003401,69.9995,28.6331,278.0748,82.0061,8.6992e-06,8.33e-06,0.0,0 STARLINK-5643,1 55431U 23014AS  23053.41159527  .00000833  00000-0  86992-5 0  9998,2 55431  69.9995  28.6331 0003401 278.0748  82.0061 15.69913662  3619,6737.281,91.725,361.437,356.855,0.0
55431.0,STARLINK-5643,PAYLOAD,2023-02-22 15:59:42,15.69932924,0.0003742,69.9995,27.9165,271.3015,88.7752,0.00021078,0.00025219,0.0,0 STARLINK-5643,1 55431U 23014AS  23053.66646080  .00025219  00000-0  21078-3 0  9997,2 55431  69.9995  27.9165 0003742 271.3015  88.7752 15.69932924  3653,6737.226,91.724,361.612,356.57,0.0
55431.0,STARLINK-5643,PAYLOAD,2023-02-23 10:20:43,15.69937832,0.0002969,69.9996,25.7669,281.6023,78.484,0.00011258,0.00013352,0.0,0 STARLINK-5643,1 55431U 23014AS  23054.43106263  .00013352  00000-0  11258-3 0  9991,2 55431  69.9996  25.7669 0002969 281.6023  78.4840 15.69937832  3772,6737.212,91.723,361.077,357.077,0.0
55431.0,STARLINK-5643,PAYLOAD,2023-02-24 04:41:45,15.69936986,0.0003225,69.9999,23.6172,268.4105,91.6721,0.00060345,0.00073018,0.0,0 STARLINK-5643,1 55431U 23014AS  23055.19566327  .00073018  00000-0  60345-3 0  9992,2 55431  69.9999  23.6172 0003225 268.4105  91.6721 15.69936986  3898,6737.214,91.723,361.252,356.907,0.0
55431.0,STARLINK-5643,PAYLOAD,2023-02-24 06:13:30,15.69948764,0.0003415,69.9997,23.4378,269.1431,90.9373,0.0006322,0.0007658,0.0,0 STARLINK-5643,1 55431U 23014AS  23055.25937888  .00076580  00000-0  63220-3 0  9995,2 55431  69.9997  23.4378 0003415 269.1431  90.9373 15.69948764  4841,6737.181,91.723,361.346,356.745,0.0
55431.0,STARLINK-5643,PAYLOAD,2023-02-24 15:24:01,15.69917885,0.0002489,69.9994,22.363,269.9465,90.1446,0.00032832,0.00039436,0.0,0 STARLINK-5643,1 55431U 23014AS  23055.64168552  .00039436  00000-0  32832-3 0  9996,2 55431  69.9994  22.3630 0002489 269.9465  90.1446 15.69917885  3967,6737.269,91.725,360.811,357.457,0.0
55431.0,STARLINK-5643,PAYLOAD,2023-02-25 05:09:47,15.69950614,0.0003182,69.9998,20.7492,258.3974,101.6865,0.00027134,0.00032575,0.0,0 STARLINK-5643,1 55431U 23014AS  23056.21512979  .00032575  00000-0  27134-3 0  9992,2 55431  69.9998  20.7492 0003182 258.3974 101.6865 15.69950614  4058,6737.175,91.723,361.184,356.897,0.0
55431.0,STARLINK-5643,PAYLOAD,2023-02-26 04:06:03,15.69953411,0.0002846,69.9998,18.0632,260.7411,99.3463,0.00015681,0.00018706,0.0,0 STARLINK-5643,1 55431U 23014AS  23057.17087737  .00018706  00000-0  15681-3 0  9991,2 55431  69.9998  18.0632 0002846 260.7411  99.3463 15.69953411  4205,6737.167,91.722,360.95,357.115,0.0
55431.0,STARLINK-5643,PAYLOAD,2023-02-26 08:41:19,15.6994248,0.000278,69.9994,17.5253,263.5077,96.5802,0.00010099,0.00011956,0.0,0 STARLINK-5643,1 55431U 23014AS  23057.36202979  .00011956  00000-0  10099-3 0  9997,2 55431  69.9994  17.5253 0002780 263.5077  96.5802 15.69942480  4233,6737.199,91.723,360.937,357.191,0.0
55431.0,STARLINK-5643,PAYLOAD,2023-02-26 22:27:05,15.69927494,0.0002358,70.0015,15.9137,261.3096,98.7833,0.00011281,0.00013374,0.0,0 STARLINK-5643,1 55431U 23014AS  23057.93548242  .00013374  00000-0  11281-3 0  9996,2 55431  70.0015  15.9137 0002358 261.3096  98.7833 15.69927494  4327,6737.241,91.724,360.695,357.518,0.0
55431.0,STARLINK-5643,PAYLOAD,2023-02-27 04:34:05,15.69939242,0.0002302,70.0016,15.1985,255.8669,104.2271,0.00010135,0.00011997,0.0,0 STARLINK-5643,1 55431U 23014AS  23058.19034674  .00011997  00000-0  10135-3 0  9990,2 55431  70.0016  15.1985 0002302 255.8669 104.2271 15.69939242  5306,6737.208,91.723,360.624,357.522,0.0
55431.0,STARLINK-5643,PAYLOAD,2023-02-27 06:05:51,15.69946703,0.0002319,70.0012,15.0192,255.9369,104.1569,0.00016283,0.00019427,0.0,0 STARLINK-5643,1 55431U 23014AS  23058.25406314  .00019427  00000-0  16283-3 0  9997,2 55431  70.0012  15.0192 0002319 255.9369 104.1569 15.69946703  4372,6737.186,91.723,360.614,357.489,0.0
